[{"OBJECT_NAME":"STARLINK-3853","OBJECT_ID":"2022-045AE","EPOCH":"2024-01-29T08:57:11.869056","MEAN_MOTION":15.0883986,"ECCENTRICITY":0.000175,"INCLINATION":53.2184,"RA_OF_ASC_NODE":57.2191,"ARG_OF_PERICENTER":97.9804,"MEAN_ANOMALY":262.1387,"EPHEMERIS_TYPE":0,"CLASSIFICATION_TYPE":"U","NORAD_CAT_ID":52359,"ELEMENT_SET_NO":999,"REV_AT_EPOCH":9949,"BSTAR":0.00013437,"MEAN_MOTION_DOT":1.851e-5,"MEAN_MOTION_DDOT":0},{"OBJECT_NAME":"STARLINK-3824","OBJECT_ID":"2022-045AF","EPOCH":"2024-01-29T02:03:48.493152","MEAN_MOTION":15.08835424,"ECCENTRICITY":0.0001758,"INCLINATION":53.2185,"RA_OF_ASC_NODE":48.4904,"ARG_OF_PERICENTER":96.8893,"MEAN_ANOMALY":263.2299,"EPHEMERIS_TYPE":0,"CLASSIFICATION_TYPE":"U","NORAD_CAT_ID":52360,"ELEMENT_SET_NO":999,"REV_AT_EPOCH":9957,"BSTAR":8.3017e-5,"MEAN_MOTION_DOT":1.033e-5,"MEAN_MOTION_DDOT":0},{"OBJECT_NAME":"STARLINK-3728","OBJECT_ID":"2022-045AG","EPOCH":"2024-01-29T02:23:40.734528","MEAN_MOTION":15.08835371,"ECCENTRICITY":0.000169,"INCLINATION":53.2175,"RA_OF_ASC_NODE":58.4298,"ARG_OF_PERICENTER":103.7284,"MEAN_ANOMALY":256.3897,"EPHEMERIS_TYPE":0,"CLASSIFICATION_TYPE":"U","NORAD_CAT_ID":52361,"ELEMENT_SET_NO":999,"REV_AT_EPOCH":9945,"BSTAR":3.7631e-5,"MEAN_MOTION_DOT":3.11e-6,"MEAN_MOTION_DDOT":0},{"OBJECT_NAME":"STARLINK-3848","OBJECT_ID":"2022-045AH","EPOCH":"2024-01-29T09:55:25.663872","MEAN_MOTION":15.08843251,"ECCENTRICITY":0.0001748,"INCLINATION":53.2187,"RA_OF_ASC_NODE":47.0224,"ARG_OF_PERICENTER":99.5617,"MEAN_ANOMALY":260.5572,"EPHEMERIS_TYPE":0,"CLASSIFICATION_TYPE":"U","NORAD_CAT_ID":52362,"ELEMENT_SET_NO":999,"REV_AT_EPOCH":9963,"BSTAR":0.00011975,"MEAN_MOTION_DOT":1.618e-5,"MEAN_MOTION_DDOT":0},{"OBJECT_NAME":"STARLINK-3830","OBJECT_ID":"2022-045AJ","EPOCH":"2024-01-29T02:18:22.716864","MEAN_MOTION":15.08835664,"ECCENTRICITY":0.0001725,"INCLINATION":53.2174,"RA_OF_ASC_NODE":58.4479,"ARG_OF_PERICENTER":96.2848,"MEAN_ANOMALY":263.8341,"EPHEMERIS_TYPE":0,"CLASSIFICATION_TYPE":"U","NORAD_CAT_ID":52363,"ELEMENT_SET_NO":999,"REV_AT_EPOCH":9945,"BSTAR":5.6345e-5,"MEAN_MOTION_DOT":6.09e-6,"MEAN_MOTION_DDOT":0},{"OBJECT_NAME":"STARLINK-3820","OBJECT_ID":"2022-045AK","EPOCH":"2024-01-29T11:09:35.923968","MEAN_MOTION":15.08848871,"ECCENTRICITY":0.0001694,"INCLINATION":53.2181,"RA_OF_ASC_NODE":46.7034,"ARG_OF_PERICENTER":95.8361,"MEAN_ANOMALY":264.2824,"EPHEMERIS_TYPE":0,"CLASSIFICATION_TYPE":"U","NORAD_CAT_ID":52364,"ELEMENT_SET_NO":999,"REV_AT_EPOCH":9964,"BSTAR":1.4731e-5,"MEAN_MOTION_DOT":-5.4e-7,"MEAN_MOTION_DDOT":0},{"OBJECT_NAME":"STARLINK-3874","OBJECT_ID":"2022-045AL","EPOCH":"2024-01-29T08:30:39.593088","MEAN_MOTION":15.0881371,"ECCENTRICITY":0.0002049,"INCLINATION":53.2189,"RA_OF_ASC_NODE":47.2899,"ARG_OF_PERICENTER":92.7016,"MEAN_ANOMALY":267.421,"EPHEMERIS_TYPE":0,"CLASSIFICATION_TYPE":"U","NORAD_CAT_ID":52365,"ELEMENT_SET_NO":999,"REV_AT_EPOCH":9962,"BSTAR":0.00047652,"MEAN_MOTION_DOT":7.298e-5,"MEAN_MOTION_DDOT":0},{"OBJECT_NAME":"STARLINK-3808","OBJECT_ID":"2022-045AM","EPOCH":"2024-01-28T11:24:08.141472","MEAN_MOTION":15.08840063,"ECCENTRICITY":0.0001764,"INCLINATION":53.2183,"RA_OF_ASC_NODE":51.2328,"ARG_OF_PERICENTER":88.2274,"MEAN_ANOMALY":271.892,"EPHEMERIS_TYPE":0,"CLASSIFICATION_TYPE":"U","NORAD_CAT_ID":52366,"ELEMENT_SET_NO":999,"REV_AT_EPOCH":9949,"BSTAR":1.8017e-5,"MEAN_MOTION_DOT":-1.0e-8,"MEAN_MOTION_DDOT":0},{"OBJECT_NAME":"STARLINK-3817","OBJECT_ID":"2022-045AN","EPOCH":"2024-01-29T06:39:21.693888","MEAN_MOTION":15.08839038,"ECCENTRICITY":0.0001772,"INCLINATION":53.2176,"RA_OF_ASC_NODE":47.6328,"ARG_OF_PERICENTER":100.5112,"MEAN_ANOMALY":259.6079,"EPHEMERIS_TYPE":0,"CLASSIFICATION_TYPE":"U","NORAD_CAT_ID":52367,"ELEMENT_SET_NO":999,"REV_AT_EPOCH":9961,"BSTAR":8.1949e-5,"MEAN_MOTION_DOT":1.016e-5,"MEAN_MOTION_DDOT":0},{"OBJECT_NAME":"STARLINK-3834","OBJECT_ID":"2022-045AP","EPOCH":"2024-01-29T10:59:01.068000","MEAN_MOTION":15.08843644,"ECCENTRICITY":0.0001826,"INCLINATION":53.2195,"RA_OF_ASC_NODE":46.8224,"ARG_OF_PERICENTER":101.6845,"MEAN_ANOMALY":258.4352,"EPHEMERIS_TYPE":0,"CLASSIFICATION_TYPE":"U","NORAD_CAT_ID":52368,"ELEMENT_SET_NO":999,"REV_AT_EPOCH":9963,"BSTAR":9.5138e-5,"MEAN_MOTION_DOT":1.226e-5,"MEAN_MOTION_DDOT":0},{"OBJECT_NAME":"STARLINK-3841","OBJECT_ID":"2022-045AQ","EPOCH":"2024-01-29T01:47:54.568896","MEAN_MOTION":15.08835704,"ECCENTRICITY":0.0001706,"INCLINATION":53.2183,"RA_OF_ASC_NODE":48.5398,"ARG_OF_PERICENTER":97.9273,"MEAN_ANOMALY":262.1913,"EPHEMERIS_TYPE":0,"CLASSIFICATION_TYPE":"U","NORAD_CAT_ID":52369,"ELEMENT_SET_NO":999,"REV_AT_EPOCH":9958,"BSTAR":5.8113e-5,"MEAN_MOTION_DOT":6.37e-6,"MEAN_MOTION_DDOT":0},{"OBJECT_NAME":"STARLINK-3827","OBJECT_ID":"2022-045AR","EPOCH":"2024-01-29T01:38:41.450784","MEAN_MOTION":15.08835304,"ECCENTRICITY":0.0001723,"INCLINATION":53.2175,"RA_OF_ASC_NODE":48.5819,"ARG_OF_PERICENTER":97.551,"MEAN_ANOMALY":262.5677,"EPHEMERIS_TYPE":0,"CLASSIFICATION_TYPE":"U","NORAD_CAT_ID":52370,"ELEMENT_SET_NO":999,"REV_AT_EPOCH":9958,"BSTAR":4.6937e-5,"MEAN_MOTION_DOT":4.59e-6,"MEAN_MOTION_DDOT":0},{"OBJECT_NAME":"STARLINK-3798","OBJECT_ID":"2022-045AS","EPOCH":"2024-01-29T01:33:23.237856","MEAN_MOTION":15.08838847,"ECCENTRICITY":0.0001709,"INCLINATION":53.2181,"RA_OF_ASC_NODE":48.596,"ARG_OF_PERICENTER":102.3511,"MEAN_ANOMALY":257.7673,"EPHEMERIS_TYPE":0,"CLASSIFICATION_TYPE":"U","NORAD_CAT_ID":52371,"ELEMENT_SET_NO":999,"REV_AT_EPOCH":9957,"BSTAR":6.3855e-5,"MEAN_MOTION_DOT":7.28e-6,"MEAN_MOTION_DDOT":0},{"OBJECT_NAME":"STARLINK-3796","OBJECT_ID":"2022-045AT","EPOCH":"2024-01-29T10:53:43.145376","MEAN_MOTION":15.08845484,"ECCENTRICITY":0.0001636,"INCLINATION":53.2191,"RA_OF_ASC_NODE":46.8418,"ARG_OF_PERICENTER":105.7985,"MEAN_ANOMALY":254.3187,"EPHEMERIS_TYPE":0,"CLASSIFICATION_TYPE":"U","NORAD_CAT_ID":52372,"ELEMENT_SET_NO":999,"REV_AT_EPOCH":9963,"BSTAR":4.2819e-5,"MEAN_MOTION_DOT":3.94e-6,"MEAN_MOTION_DDOT":0},{"OBJECT_NAME":"STARLINK-3550","OBJECT_ID":"2022-045AU","EPOCH":"2024-01-29T07:27:03.629952","MEAN_MOTION":15.0883929,"ECCENTRICITY":0.000174,"INCLINATION":53.219,"RA_OF_ASC_NODE":47.4923,"ARG_OF_PERICENTER":81.0288,"MEAN_ANOMALY":279.0901,"EPHEMERIS_TYPE":0,"CLASSIFICATION_TYPE":"U","NORAD_CAT_ID":52373,"ELEMENT_SET_NO":999,"REV_AT_EPOCH":9962,"BSTAR":2.8476e-5,"MEAN_MOTION_DOT":1.65e-6,"MEAN_MOTION_DDOT":0},{"OBJECT_NAME":"STARLINK-3762","OBJECT_ID":"2022-045AV","EPOCH":"2024-01-29T01:10:49.617696","MEAN_MOTION":15.08834308,"ECCENTRICITY":0.0001408,"INCLINATION":53.2188,"RA_OF_ASC_NODE":48.6587,"ARG_OF_PERICENTER":108.9236,"MEAN_ANOMALY":251.1909,"EPHEMERIS_TYPE":0,"CLASSIFICATION_TYPE":"U","NORAD_CAT_ID":52374,"ELEMENT_SET_NO":999,"REV_AT_EPOCH":9958,"BSTAR":-2.6266e-5,"MEAN_MOTION_DOT":-7.06e-6,"MEAN_MOTION_DDOT":0},{"OBJECT_NAME":"STARLINK-3785","OBJECT_ID":"2022-045AW","EPOCH":"2024-01-28T10:57:38.173248","MEAN_MOTION":15.0884672,"ECCENTRICITY":0.0001683,"INCLINATION":53.2191,"RA_OF_ASC_NODE":51.3205,"ARG_OF_PERICENTER":98.8286,"MEAN_ANOMALY":261.2897,"EPHEMERIS_TYPE":0,"CLASSIFICATION_TYPE":"U","NORAD_CAT_ID":52375,"ELEMENT_SET_NO":999,"REV_AT_EPOCH":9949,"BSTAR":5.2129e-5,"MEAN_MOTION_DOT":5.42e-6,"MEAN_MOTION_DDOT":0},{"OBJECT_NAME":"STARLINK-3767","OBJECT_ID":"2022-045AX","EPOCH":"2024-01-29T08:57:08.156448","MEAN_MOTION":15.08847529,"ECCENTRICITY":0.000158,"INCLINATION":53.2186,"RA_OF_ASC_NODE":47.2116,"ARG_OF_PERICENTER":83.0752,"MEAN_ANOMALY":277.0419,"EPHEMERIS_TYPE":0,"CLASSIFICATION_TYPE":"U","NORAD_CAT_ID":52376,"ELEMENT_SET_NO":999,"REV_AT_EPOCH":9963,"BSTAR":8.3442e-5,"MEAN_MOTION_DOT":1.04e-5,"MEAN_MOTION_DDOT":0},{"OBJECT_NAME":"STARLINK-3805","OBJECT_ID":"2022-045AY","EPOCH":"2024-01-29T07:53:34.827648","MEAN_MOTION":15.08844595,"ECCENTRICITY":0.0001955,"INCLINATION":53.2187,"RA_OF_ASC_NODE":47.6245,"ARG_OF_PERICENTER":114.0473,"MEAN_ANOMALY":246.0724,"EPHEMERIS_TYPE":0,"CLASSIFICATION_TYPE":"U","NORAD_CAT_ID":52377,"ELEMENT_SET_NO":999,"REV_AT_EPOCH":9961,"BSTAR":8.377e-5,"MEAN_MOTION_DOT":1.045e-5,"MEAN_MOTION_DDOT":0},{"OBJECT_NAME":"STARLINK-3806","OBJECT_ID":"2022-045AZ","EPOCH":"2024-01-29T10:21:55.328832","MEAN_MOTION":15.0885315,"ECCENTRICITY":0.0001811,"INCLINATION":53.2178,"RA_OF_ASC_NODE":46.9425,"ARG_OF_PERICENTER":106.1455,"MEAN_ANOMALY":253.9736,"EPHEMERIS_TYPE":0,"CLASSIFICATION_TYPE":"U","NORAD_CAT_ID":52378,"ELEMENT_SET_NO":999,"REV_AT_EPOCH":9964,"BSTAR":0.0001894,"MEAN_MOTION_DOT":2.729e-5,"MEAN_MOTION_DDOT":0},{"OBJECT_NAME":"STARLINK-3800","OBJECT_ID":"2022-045BA","EPOCH":"2024-01-29T00:54:55.277856","MEAN_MOTION":15.08837803,"ECCENTRICITY":0.0001536,"INCLINATION":53.219,"RA_OF_ASC_NODE":48.7087,"ARG_OF_PERICENTER":89.9568,"MEAN_ANOMALY":270.16,"EPHEMERIS_TYPE":0,"CLASSIFICATION_TYPE":"U","NORAD_CAT_ID":52379,"ELEMENT_SET_NO":999,"REV_AT_EPOCH":9958,"BSTAR":5.6771e-5,"MEAN_MOTION_DOT":6.16e-6,"MEAN_MOTION_DDOT":0},{"OBJECT_NAME":"STARLINK-3793","OBJECT_ID":"2022-045BB","EPOCH":"2024-01-29T06:45:59.726592","MEAN_MOTION":15.08842072,"ECCENTRICITY":0.0001651,"INCLINATION":53.2189,"RA_OF_ASC_NODE":37.6482,"ARG_OF_PERICENTER":87.2282,"MEAN_ANOMALY":272.8899,"EPHEMERIS_TYPE":0,"CLASSIFICATION_TYPE":"U","NORAD_CAT_ID":52380,"ELEMENT_SET_NO":999,"REV_AT_EPOCH":9975,"BSTAR":2.8321e-5,"MEAN_MOTION_DOT":1.63e-6,"MEAN_MOTION_DDOT":0},{"OBJECT_NAME":"STARLINK-3803","OBJECT_ID":"2022-045BC","EPOCH":"2024-01-29T00:44:19.353984","MEAN_MOTION":15.08834814,"ECCENTRICITY":0.0001472,"INCLINATION":53.2191,"RA_OF_ASC_NODE":48.7398,"ARG_OF_PERICENTER":90.2807,"MEAN_ANOMALY":269.8354,"EPHEMERIS_TYPE":0,"CLASSIFICATION_TYPE":"U","NORAD_CAT_ID":52381,"ELEMENT_SET_NO":999,"REV_AT_EPOCH":9958,"BSTAR":5.4409e-6,"MEAN_MOTION_DOT":-2.01e-6,"MEAN_MOTION_DDOT":0},{"OBJECT_NAME":"STARLINK-3799","OBJECT_ID":"2022-045BD","EPOCH":"2024-01-29T10:11:20.551488","MEAN_MOTION":15.08816639,"ECCENTRICITY":0.0001741,"INCLINATION":53.2182,"RA_OF_ASC_NODE":46.9803,"ARG_OF_PERICENTER":91.4672,"MEAN_ANOMALY":268.6519,"EPHEMERIS_TYPE":0,"CLASSIFICATION_TYPE":"U","NORAD_CAT_ID":52382,"ELEMENT_SET_NO":999,"REV_AT_EPOCH":9964,"BSTAR":0.00038448,"MEAN_MOTION_DOT":5.832e-5,"MEAN_MOTION_DDOT":0}]
